ORBCOMM FM33            
1 25983U 99065D   25070.12259181  .00002115  00000+0  71544-3 0  9991
2 25983  45.0275 105.0831 0010735 284.6206  75.3452 14.39597252322004
ORBCOMM FM36            
1 25984U 99065E   25069.74973626  .00002577  00000+0  89603-3 0  9992
2 25984  45.0376 197.2694 0004601 183.0884 176.9937 14.37693253320253
ORBCOMM FM35            
1 25985U 99065F   25069.79939187  .00001850  00000+0  66932-3 0  9995
2 25985  45.0389 201.3046 0004625 246.7221 113.3140 14.36725060320638
ORBCOMM FM34            
1 25986U 99065G   25069.76777199  .00001847  00000+0  66777-3 0  9999
2 25986  45.0382 201.9533 0005302 209.0497 151.0057 14.36771383320746
ORBCOMM FM38            
1 33060U 08031A   25070.11876487  .00003735  00000+0  50863-3 0  9992
2 33060  48.4396  62.4137 0006017 333.2728  26.7877 14.80613947900204
ORBCOMM FM41            
1 33061U 08031B   25070.17223662  .00003408  00000+0  47071-3 0  9994
2 33061  48.4430  69.6094 0005291 319.5733  90.9220 14.80232506900158
ORBCOMM FM29            
1 33062U 08031C   25070.09369214  .00003639  00000+0  49993-3 0  9991
2 33062  48.4379  77.9009 0007083 318.5598  86.1055 14.80291267900004
ORBCOMM FM39            
1 33063U 08031D   25070.15734835  .00002674  00000+0  38676-3 0  9998
2 33063  48.4392 100.8203 0008056 293.9953  66.0118 14.78934978899705
